{
  "employees": [
    {
      "employeeId": "1083",
      "name": "Sandhiya",
      "organization": "Tech Corp",
      "position": "associate",
      "addresses": [
        {
          "street": "juhgytfdgr",
          "city": "kjlhgh",
          "state": "jkhg",
          "zip": "600100"
        }
      ],
      "id": 1
    },
    {
      "employeeId": "1083",
      "name": "Sandhiya",
      "organization": "accenture",
      "position": "associate",
      "addresses": [
        {
          "street": "juhgytfdgr",
          "city": "kjlhgh",
          "state": "jkhg",
          "zip": "600100"
        }
      ],
      "id": 2
    },
    {
      "employeeId": "1082",
      "name": "Megha",
      "organization": "4i",
      "position": "chennai",
      "addresses": [
        {
          "street": "juhgytfdgr",
          "city": "kjlhgh",
          "state": "jkhg",
          "zip": "600100"
        }
      ],
      "id": 3
    },
    {
      "employeeId": "1085",
      "name": "Varsha",
      "organization": "amazon",
      "position": "chennai",
      "addresses": [
        {
          "street": "juhgytfdgr",
          "city": "kjlhgh",
          "state": "jkhg",
          "zip": "600105"
        }
      ],
      "id": 4
    },
    {
      "employeeId": "1085",
      "name": "Varsha",
      "organization": "Tech Corp",
      "position": "chennai",
      "addresses": [
        {
          "street": "juhgytfdgr",
          "city": "kjlhgh",
          "state": "jkhg",
          "zip": "600109"
        }
      ],
      "id": 5
    },
    {
      "employeeId": "1085",
      "name": "Varsha",
      "organization": "Tech Corp",
      "position": "chennai",
      "addresses": [
        {
          "street": "juhgytfdgr",
          "city": "kjlhgh",
          "state": "jkhg",
          "zip": "600100"
        }
      ],
      "id": 6
    },
    {
      "employeeId": "1085",
      "name": "Varsha",
      "organization": "Tech Corp",
      "position": "chennai",
      "addresses": [
        {
          "street": "juhgytfdgr",
          "city": "kjlhgh",
          "state": "jkhg",
          "zip": "600100"
        }
      ],
      "id": 7
    },
    {
      "employeeId": "1085",
      "name": "Varsha",
      "organization": "Tech Corp",
      "position": "chennai",
      "addresses": [
        {
          "street": "juhgytfdgr",
          "city": "kjlhgh",
          "state": "jkhg",
          "zip": "600100"
        }
      ],
      "id": 8
    },
    {
      "employeeId": "1086",
      "name": "Varsha",
      "organization": "Tech Corp",
      "position": "chennai",
      "addresses": [
        {
          "street": "juhgytfdgr",
          "city": "kjlhgh",
          "state": "jkhg",
          "zip": "600100"
        }
      ],
      "id": 9
    },
    {
      "employeeId": "1086",
      "name": "Varsha",
      "organization": "Tech Corp",
      "position": "chennai",
      "addresses": [
        {
          "street": "juhgytfdgr",
          "city": "kjlhgh",
          "state": "jkhg",
          "zip": "600100"
        }
      ],
      "id": 10
    },
    {
      "employeeId": "1082",
      "name": "Megha",
      "organization": "Tech Corp",
      "position": "chennai",
      "addresses": [
        {
          "street": "juhgytfdgr",
          "city": "kjlhgh",
          "state": "jkhg",
          "zip": "600100"
        }
      ],
      "id": 11
    },
    {
      "employeeId": "1082",
      "name": "Megha",
      "organization": "Tech Corp",
      "position": "chennai",
      "addresses": [
        {
          "street": "juhgytfdgr",
          "city": "kjlhgh",
          "state": "jkhg",
          "zip": "600100"
        }
      ],
      "id": 12
    }
  ]
}